NORAD_CAT_ID,OBJECT_NAME,OBJECT_TYPE,EPOCH,MEAN_MOTION,ECCENTRICITY,INCLINATION,RA_OF_ASC_NODE,ARG_OF_PERICENTER,MEAN_ANOMALY,BSTAR,MEAN_MOTION_DOT,MEAN_MOTION_DDOT,TLE_LINE0,TLE_LINE1,TLE_LINE2,SEMIMAJOR_AXIS,PERIOD,APOGEE,PERIGEE,DECAYED
51999.0,STARLINK-3667,PAYLOAD,2022-04-09 14:00:01,15.73091686,0.0001232,53.2166,346.2128,121.9231,136.129,0.00060161,0.00084269,0.0,0 STARLINK-3667,1 51999U 22025AV  22099.58334491  .00084269  00000-0  60161-3 0  9999,2 51999  53.2166 346.2128 0001232 121.9231 136.1290 15.73091686  3710,6728.204000000002,91.539,350.898,349.24,0.0
51999.0,STARLINK-3667,PAYLOAD,2022-04-09 20:00:01,15.73165102,0.0001205,53.2167,344.9771,119.0444,115.6407,0.00029583,0.00041039,0.0,0 STARLINK-3667,1 51999U 22025AV  22099.83334491  .00041039  00000-0  29583-3 0  9998,2 51999  53.2167 344.9771 0001205 119.0444 115.6407 15.73165102  6196,6727.995,91.535,350.67,349.0490000000001,0.0
51999.0,STARLINK-3667,PAYLOAD,2022-04-09 22:00:00,15.7317218,0.0001167,53.2165,344.5653,115.5938,231.3134,0.00030604,0.00042497,0.0,0 STARLINK-3667,1 51999U 22025AV  22099.91667824  .00042497  00000-0  30604-3 0  9991,2 51999  53.2165 344.5653 0001167 115.5938 231.3134 15.73172180  3706,6727.974,91.535,350.625,349.05400000000014,0.0
51999.0,STARLINK-3667,PAYLOAD,2022-04-10 04:00:00,15.73187953,0.0001035,53.2161,343.3289,111.9926,211.6026,0.00079936,0.00113026,0.0,0 STARLINK-3667,1 51999U 22025AV  22100.16667824  .00113026  00000-0  79936-3 0  9999,2 51999  53.2161 343.3289 0001035 111.9926 211.6026 15.73187953  6242,6727.93,91.534,350.491,349.098,0.0
51999.0,STARLINK-3667,PAYLOAD,2022-04-10 12:00:00,15.73252389,0.0001178,53.2163,341.6772,125.8294,286.7176,0.00015543,0.00021297,0.0,0 STARLINK-3667,1 51999U 22025AV  22100.50001157  .00021297  00000-0  15543-3 0  9990,2 51999  53.2163 341.6772 0001178 125.8294 286.7176 15.73252389  6292,6727.746,91.53,350.403,348.8180000000001,0.0
51999.0,STARLINK-3667,PAYLOAD,2022-04-10 14:00:01,15.73269523,0.0001248,53.2162,341.2645,126.6256,38.1665,-8.2699e-05,-0.00012244,0.0,0 STARLINK-3667,1 51999U 22025AV  22100.58334491 -.00012244  00000-0 -82699-4 0  9999,2 51999  53.2162 341.2645 0001248 126.6256  38.1665 15.73269523  3715,6727.696999999999,91.529,350.402,348.722,0.0
51999.0,STARLINK-3667,PAYLOAD,2022-04-10 22:00:00,15.7328375,0.0001206,53.2164,339.6167,115.7638,138.0546,-0.00060989,-0.00085652,0.0,0 STARLINK-3667,1 51999U 22025AV  22100.91667824 -.00085652  00000-0 -60989-3 0  9995,2 51999  53.2164 339.6167 0001206 115.7638 138.0546 15.73283750  3710,6727.656,91.528,350.333,348.71,0.0
51999.0,STARLINK-3667,PAYLOAD,2022-04-11 04:00:01,15.73219804,0.0001173,53.2163,338.3799,109.3924,121.2261,-0.00042019,-0.00059226,0.0,0 STARLINK-3667,1 51999U 22025AV  22101.16668981 -.00059226  00000-0 -42019-3 0  9990,2 51999  53.2163 338.3799 0001173 109.3924 121.2261 15.73219804  6402,6727.839,91.532,350.49300000000005,348.915,0.0
51999.0,STARLINK-3667,PAYLOAD,2022-04-11 12:00:00,15.72956426,0.0001404,53.2169,336.7173,120.3343,199.2445,0.00022417,0.0003063,0.0,0 STARLINK-3667,1 51999U 22025AV  22101.50001157  .00030630  00000-0  22417-3 0  9990,2 51999  53.2169 336.7173 0001404 120.3343 199.2445 15.72956426  6452,6728.59,91.547,351.399,349.51,0.0
51999.0,STARLINK-3667,PAYLOAD,2022-04-11 14:00:01,15.72687953,0.0001321,53.2169,336.3029,128.1288,303.6993,0.0045468,0.00676828,0.0,0 STARLINK-3667,1 51999U 22025AV  22101.58334491  .00676828  00000-0  45468-2 0  9993,2 51999  53.2169 336.3029 0001321 128.1288 303.6993 15.72687953  3700,6729.355,91.563,352.1090000000001,350.331,0.0
51999.0,STARLINK-3667,PAYLOAD,2022-04-11 20:00:01,15.73205061,0.0001204,53.2162,335.0804,116.4986,291.9406,-5.0368e-05,-7.684e-05,0.0,0 STARLINK-3667,1 51999U 22025AV  22101.83334491 -.00007684  00000-0 -50368-4 0  9998,2 51999  53.2162 335.0804 0001204 116.4986 291.9406 15.73205061  6501,6727.880999999999,91.533,350.556,348.936,0.0
51999.0,STARLINK-3667,PAYLOAD,2022-04-11 22:00:00,15.73200432,0.0001183,53.216,334.6684,112.9746,47.6996,-1.7789000000000002e-05,-3.115e-05,0.0,0 STARLINK-3667,1 51999U 22025AV  22101.91667824 -.00003115  00000-0 -17789-4 0  9991,2 51999  53.2160 334.6684 0001183 112.9746  47.6996 15.73200432  3695,6727.894,91.533,350.555,348.963,0.0
51999.0,STARLINK-3667,PAYLOAD,2022-04-12 14:00:01,15.73197319,0.0001125,53.2157,331.3676,127.6697,210.8187,8.561e-05,0.0001141,0.0,0 STARLINK-3667,1 51999U 22025AV  22102.58334491  .00011410  00000-0  85610-4 0  9999,2 51999  53.2157 331.3676 0001125 127.6697 210.8187 15.73197319  3718,6727.903,91.533,350.525,349.011,0.0
51999.0,STARLINK-3667,PAYLOAD,2022-04-12 20:00:01,15.73184763,0.0001153,53.2159,330.1322,117.5189,197.6518,-0.0001959,-0.00028003,0.0,0 STARLINK-3667,1 51999U 22025AV  22102.83334491 -.00028003  00000-0 -19590-3 0  9998,2 51999  53.2159 330.1322 0001153 117.5189 197.6518 15.73184763  6666,6727.939,91.534,350.579,349.028,0.0
51999.0,STARLINK-3667,PAYLOAD,2022-04-12 22:00:00,15.73161341,0.0001147,53.2158,329.7204,113.4833,313.9184,0.0001512,0.00020617,0.0,0 STARLINK-3667,1 51999U 22025AV  22102.91667824  .00020617  00000-0  15120-3 0  9992,2 51999  53.2158 329.7204 0001147 113.4833 313.9184 15.73161341  3691,6728.005,91.535,350.642,349.099,0.0
51999.0,STARLINK-3667,PAYLOAD,2022-04-13 04:00:00,15.73180909,0.0001045,53.2156,328.4833,109.1696,294.8997,0.00042431,0.00059301,0.0,0 STARLINK-3667,1 51999U 22025AV  22103.16667824  .00059301  00000-0  42431-3 0  9997,2 51999  53.2156 328.4833 0001045 109.1696 294.8997 15.73180909  6715,6727.95,91.534,350.51800000000014,349.112,0.0
51999.0,STARLINK-3667,PAYLOAD,2022-04-13 12:00:00,15.73206057,0.0001171,53.2174,326.8148,110.5863,22.2457,-9.0885e-06,-1.895e-05,0.0,0 STARLINK-3667,1 51999U 22025AV  22103.50001157 -.00001895  00000-0 -90885-5 0  9991,2 51999  53.2174 326.8148 0001171 110.5863  22.2457 15.73206057  6760,6727.878000000002,91.533,350.531,348.955,0.0
51999.0,STARLINK-3667,PAYLOAD,2022-04-13 14:00:03,15.73206177,0.000129,53.2176,326.4008,112.3879,132.8105,-1.7885e-05,-3.13e-05,0.0,0 STARLINK-3667,1 51999U 22025AV  22103.58336806 -.00003130  00000-0 -17885-4 0  9993,2 51999  53.2176 326.4008 0001290 112.3879 132.8105 15.73206177  3704,6727.878000000002,91.533,350.61,348.875,0.0
51999.0,STARLINK-3667,PAYLOAD,2022-04-13 20:00:01,15.73236453,0.0001207,53.2154,325.1839,112.2962,109.759,-0.00016553,-0.00023821,0.0,0 STARLINK-3667,1 51999U 22025AV  22103.83335648 -.00023821  00000-0 -16553-3 0  9993,2 51999  53.2154 325.1839 0001207 112.2962 109.7590 15.73236453  6814,6727.791,91.531,350.468,348.844,0.0
51999.0,STARLINK-3667,PAYLOAD,2022-04-13 22:00:00,15.73249482,0.0001192,53.2153,324.772,109.0112,225.2151,-0.00042434,-0.00059876,0.0,0 STARLINK-3667,1 51999U 22025AV  22103.91667824 -.00059876  00000-0 -42434-3 0  9992,2 51999  53.2153 324.7720 0001192 109.0112 225.2151 15.73249482  3709,6727.754,91.53,350.421,348.81699999999995,0.0
51999.0,STARLINK-3667,PAYLOAD,2022-04-14 12:00:00,15.73152405,0.0001339,53.2147,321.8831,117.9077,281.9734,-9.4818e-05,-0.00013878,0.0,0 STARLINK-3667,1 51999U 22025AV  22104.50001157 -.00013878  00000-0 -94818-4 0  9995,2 51999  53.2147 321.8831 0001339 117.9077 281.9734 15.73152405  6925,6728.031,91.536,350.797,348.995,0.0
51999.0,STARLINK-3667,PAYLOAD,2022-04-14 14:00:01,15.73156527,0.0001418,53.2149,321.4708,117.6404,34.4551,-0.00015169,-0.00021814,0.0,0 STARLINK-3667,1 51999U 22025AV  22104.58334491 -.00021814  00000-0 -15169-3 0  9993,2 51999  53.2149 321.4708 0001418 117.6404  34.4551 15.73156527  3705,6728.019,91.536,350.838,348.93,0.0
51999.0,STARLINK-3667,PAYLOAD,2022-04-14 20:00:01,15.7315421,0.0001357,53.2147,320.2354,108.9781,19.7938,0.00026367,0.00036473,0.0,0 STARLINK-3667,1 51999U 22025AV  22104.83334491  .00036473  00000-0  26367-3 0  9998,2 51999  53.2147 320.2354 0001357 108.9781  19.7938 15.73154210  6974,6728.026,91.536,350.80400000000014,348.978,0.0
51999.0,STARLINK-3667,PAYLOAD,2022-04-14 22:00:00,15.73150532,0.0001344,53.2149,319.8235,105.3724,135.6207,0.00045694,0.00063861,0.0,0 STARLINK-3667,1 51999U 22025AV  22104.91667824  .00063861  00000-0  45694-3 0  9991,2 51999  53.2149 319.8235 0001344 105.3724 135.6207 15.73150532  3700,6728.036,91.536,350.805,348.997,0.0
51999.0,STARLINK-3667,PAYLOAD,2022-04-15 04:00:00,15.73211495,0.0001193,53.2145,318.586,106.7301,110.9352,0.00038883,0.0005433,0.0,0 STARLINK-3667,1 51999U 22025AV  22105.16667824  .00054330  00000-0  38883-3 0  9992,2 51999  53.2145 318.5860 0001193 106.7301 110.9352 15.73211495  7026,6727.861999999999,91.533,350.53,348.925,0.0
51999.0,STARLINK-3667,PAYLOAD,2022-04-15 12:00:00,15.7325872,0.0001276,53.2146,316.9344,114.6385,192.0123,0.00059061,0.00083304,0.0,0 STARLINK-3667,1 51999U 22025AV  22105.50001157  .00083304  00000-0  59061-3 0  9995,2 51999  53.2146 316.9344 0001276 114.6385 192.0123 15.73258720  7083,6727.728,91.53,350.451,348.7340000000001,0.0
51999.0,STARLINK-3667,PAYLOAD,2022-04-15 14:00:01,15.73306916,0.0001363,53.2148,316.5222,113.3518,305.5412,1.0008e-05,7.9e-06,0.0,0 STARLINK-3667,1 51999U 22025AV  22105.58334491  .00000790  00000-0  10008-4 0  9990,2 51999  53.2148 316.5222 0001363 113.3518 305.5412 15.73306916  3705,6727.59,91.527,350.372,348.538,0.0
51999.0,STARLINK-3667,PAYLOAD,2022-04-15 20:00:01,15.73308964,0.000129,53.2143,315.2866,105.8613,289.8118,-0.00085736,-0.00119803,0.0,0 STARLINK-3667,1 51999U 22025AV  22105.83334491 -.00119803  00000-0 -85736-3 0  9995,2 51999  53.2143 315.2866 0001290 105.8613 289.8118 15.73308964  7134,6727.585,91.527,350.31699999999995,348.582,0.0
51999.0,STARLINK-3667,PAYLOAD,2022-04-15 22:00:00,15.73278568,0.0001293,53.2143,314.8745,102.9699,44.9667,-0.00064163,-0.00090012,0.0,0 STARLINK-3667,1 51999U 22025AV  22105.91667824 -.00090012  00000-0 -64163-3 0  9994,2 51999  53.2143 314.8745 0001293 102.9699  44.9667 15.73278568  3670,6727.670999999999,91.529,350.406,348.666,0.0
